[ {"CCSDS_OMM_VERS": "3.0", "COMMENT": "GENERATED VIA SPACE-TRACK.ORG API", "CREATION_DATE": "2020-02-05T22:30:16", "ORIGINATOR": "18 SPCS", "OBJECT_NAME": "OPS-SAT", "OBJECT_ID": "2019-092F", "CENTER_NAME": "EARTH", "REF_FRAME": "TEME", "TIME_SYSTEM": "UTC", "MEAN_ELEMENT_THEORY": "SGP4", "EPOCH": "2020-02-05T18:37:04.393056", "MEAN_MOTION": "15.15239364", "ECCENTRICITY": "0.00154170", "INCLINATION": "97.4603", "RA_OF_ASC_NODE": "222.3343", "ARG_OF_PERICENTER": "97.3382", "MEAN_ANOMALY": "262.9710", "EPHEMERIS_TYPE": "0", "CLASSIFICATION_TYPE": "U", "NORAD_CAT_ID": "44878", "ELEMENT_SET_NO": "999", "REV_AT_EPOCH": "744", "BSTAR": "0.00000000000000", "MEAN_MOTION_DOT": "-0.00000066", "MEAN_MOTION_DDOT": "0.0000000000000", "SEMIMAJOR_AXIS": "6898.388", "PERIOD": "95.034", "APOAPSIS": "530.889", "PERIAPSIS": "509.618", "OBJECT_TYPE": "PAYLOAD", "RCS_SIZE": "SMALL", "COUNTRY_CODE": "ESA", "LAUNCH_DATE": "2019-12-18", "SITE": "FRGUI", "DECAY_DATE": null, "FILE": "2695761", "GP_ID": "148123971", "TLE_LINE0": "0 OPS-SAT", "TLE_LINE1": "1 44878U 19092F   20036.77574529 -.00000066  00000-0  00000+0 0  9991", "TLE_LINE2": "2 44878  97.4603 222.3343 0015417  97.3382 262.9710 15.15239364  7442"}, {"CCSDS_OMM_VERS": "3.0", "COMMENT": "GENERATED VIA SPACE-TRACK.ORG API", "CREATION_DATE": "2020-02-06T16:46:50", "ORIGINATOR": "18 SPCS", "OBJECT_NAME": "OPS-SAT", "OBJECT_ID": "2019-092F", "CENTER_NAME": "EARTH", "REF_FRAME": "TEME", "TIME_SYSTEM": "UTC", "MEAN_ELEMENT_THEORY": "SGP4", "EPOCH": "2020-02-06T00:57:27.009216", "MEAN_MOTION": "15.15239544", "ECCENTRICITY": "0.00155700", "INCLINATION": "97.4613", "RA_OF_ASC_NODE": "222.5954", "ARG_OF_PERICENTER": "96.6874", "MEAN_ANOMALY": "263.6151", "EPHEMERIS_TYPE": "0", "CLASSIFICATION_TYPE": "U", "NORAD_CAT_ID": "44878", "ELEMENT_SET_NO": "999", "REV_AT_EPOCH": "748", "BSTAR": "0.00000000000000", "MEAN_MOTION_DOT": "-0.00000066", "MEAN_MOTION_DDOT": "0.0000000000000", "SEMIMAJOR_AXIS": "6898.388", "PERIOD": "95.034", "APOAPSIS": "530.994", "PERIAPSIS": "509.512", "OBJECT_TYPE": "PAYLOAD", "RCS_SIZE": "SMALL", "COUNTRY_CODE": "ESA", "LAUNCH_DATE": "2019-12-18", "SITE": "FRGUI", "DECAY_DATE": null, "FILE": "2696031", "GP_ID": "148169228", "TLE_LINE0": "0 OPS-SAT", "TLE_LINE1": "1 44878U 19092F   20037.03989594 -.00000066 +00000-0 +00000-0 0  9994", "TLE_LINE2": "2 44878 097.4613 222.5954 0015570 096.6874 263.6151 15.15239544007482"}, {"CCSDS_OMM_VERS": "3.0", "COMMENT": "GENERATED VIA SPACE-TRACK.ORG API", "CREATION_DATE": "2020-02-07T05:25:45", "ORIGINATOR": "18 SPCS", "OBJECT_NAME": "OPS-SAT", "OBJECT_ID": "2019-092F", "CENTER_NAME": "EARTH", "REF_FRAME": "TEME", "TIME_SYSTEM": "UTC", "MEAN_ELEMENT_THEORY": "SGP4", "EPOCH": "2020-02-06T15:13:18.232320", "MEAN_MOTION": "15.15241397", "ECCENTRICITY": "0.00154700", "INCLINATION": "97.4619", "RA_OF_ASC_NODE": "223.1789", "ARG_OF_PERICENTER": "94.3152", "MEAN_ANOMALY": "266.0015", "EPHEMERIS_TYPE": "0", "CLASSIFICATION_TYPE": "U", "NORAD_CAT_ID": "44878", "ELEMENT_SET_NO": "999", "REV_AT_EPOCH": "757", "BSTAR": "0.00000000000000", "MEAN_MOTION_DOT": "-0.00000066", "MEAN_MOTION_DDOT": "0.0000000000000", "SEMIMAJOR_AXIS": "6898.382", "PERIOD": "95.034", "APOAPSIS": "530.919", "PERIAPSIS": "509.575", "OBJECT_TYPE": "PAYLOAD", "RCS_SIZE": "SMALL", "COUNTRY_CODE": "ESA", "LAUNCH_DATE": "2019-12-18", "SITE": "FRGUI", "DECAY_DATE": null, "FILE": "2696382", "GP_ID": "148196991", "TLE_LINE0": "0 OPS-SAT", "TLE_LINE1": "1 44878U 19092F   20037.63423880 -.00000066 +00000-0 +00000-0 0  9991", "TLE_LINE2": "2 44878 097.4619 223.1789 0015470 094.3152 266.0015 15.15241397007579"}, {"CCSDS_OMM_VERS": "3.0", "COMMENT": "GENERATED VIA SPACE-TRACK.ORG API", "CREATION_DATE": "2020-02-07T06:20:13", "ORIGINATOR": "18 SPCS", "OBJECT_NAME": "OPS-SAT", "OBJECT_ID": "2019-092F", "CENTER_NAME": "EARTH", "REF_FRAME": "TEME", "TIME_SYSTEM": "UTC", "MEAN_ELEMENT_THEORY": "SGP4", "EPOCH": "2020-02-07T00:43:52.096512", "MEAN_MOTION": "15.15241618", "ECCENTRICITY": "0.00154920", "INCLINATION": "97.4622", "RA_OF_ASC_NODE": "223.5682", "ARG_OF_PERICENTER": "92.6265", "MEAN_ANOMALY": "267.6748", "EPHEMERIS_TYPE": "0", "CLASSIFICATION_TYPE": "U", "NORAD_CAT_ID": "44878", "ELEMENT_SET_NO": "999", "REV_AT_EPOCH": "763", "BSTAR": "0.00000000000000", "MEAN_MOTION_DOT": "-0.00000066", "MEAN_MOTION_DDOT": "0.0000000000000", "SEMIMAJOR_AXIS": "6898.382", "PERIOD": "95.034", "APOAPSIS": "530.934", "PERIAPSIS": "509.560", "OBJECT_TYPE": "PAYLOAD", "RCS_SIZE": "SMALL", "COUNTRY_CODE": "ESA", "LAUNCH_DATE": "2019-12-18", "SITE": "FRGUI", "DECAY_DATE": null, "FILE": "2696394", "GP_ID": "148216894", "TLE_LINE0": "0 OPS-SAT", "TLE_LINE1": "1 44878U 19092F   20038.03046408 -.00000066  00000-0  00000+0 0  9992", "TLE_LINE2": "2 44878  97.4622 223.5682 0015492  92.6265 267.6748 15.15241618  7632"}, {"CCSDS_OMM_VERS": "3.0", "COMMENT": "GENERATED VIA SPACE-TRACK.ORG API", "CREATION_DATE": "2020-02-07T16:36:20", "ORIGINATOR": "18 SPCS", "OBJECT_NAME": "OPS-SAT", "OBJECT_ID": "2019-092F", "CENTER_NAME": "EARTH", "REF_FRAME": "TEME", "TIME_SYSTEM": "UTC", "MEAN_ELEMENT_THEORY": "SGP4", "EPOCH": "2020-02-07T07:04:14.831040", "MEAN_MOTION": "15.15242257", "ECCENTRICITY": "0.00154170", "INCLINATION": "97.4618", "RA_OF_ASC_NODE": "223.8271", "ARG_OF_PERICENTER": "91.5864", "MEAN_ANOMALY": "268.7196", "EPHEMERIS_TYPE": "0", "CLASSIFICATION_TYPE": "U", "NORAD_CAT_ID": "44878", "ELEMENT_SET_NO": "999", "REV_AT_EPOCH": "767", "BSTAR": "0.00000000000000", "MEAN_MOTION_DOT": "-0.00000066", "MEAN_MOTION_DDOT": "0.0000000000000", "SEMIMAJOR_AXIS": "6898.380", "PERIOD": "95.034", "APOAPSIS": "530.880", "PERIAPSIS": "509.609", "OBJECT_TYPE": "PAYLOAD", "RCS_SIZE": "SMALL", "COUNTRY_CODE": "ESA", "LAUNCH_DATE": "2019-12-18", "SITE": "FRGUI", "DECAY_DATE": null, "FILE": "2696715", "GP_ID": "148243581", "TLE_LINE0": "0 OPS-SAT", "TLE_LINE1": "1 44878U 19092F   20038.29461610 -.00000066 +00000-0 +00000-0 0  9997", "TLE_LINE2": "2 44878 097.4618 223.8271 0015417 091.5864 268.7196 15.15242257007677"}, {"CCSDS_OMM_VERS": "3.0", "COMMENT": "GENERATED VIA SPACE-TRACK.ORG API", "CREATION_DATE": "2020-02-08T01:20:20", "ORIGINATOR": "18 SPCS", "OBJECT_NAME": "OPS-SAT", "OBJECT_ID": "2019-092F", "CENTER_NAME": "EARTH", "REF_FRAME": "TEME", "TIME_SYSTEM": "UTC", "MEAN_ELEMENT_THEORY": "SGP4", "EPOCH": "2020-02-07T19:44:59.997696", "MEAN_MOTION": "15.15244485", "ECCENTRICITY": "0.00156680", "INCLINATION": "97.4617", "RA_OF_ASC_NODE": "224.3455", "ARG_OF_PERICENTER": "88.3892", "MEAN_ANOMALY": "271.9141", "EPHEMERIS_TYPE": "0", "CLASSIFICATION_TYPE": "U", "NORAD_CAT_ID": "44878", "ELEMENT_SET_NO": "999", "REV_AT_EPOCH": "775", "BSTAR": "0.00000000000000", "MEAN_MOTION_DOT": "-0.00000066", "MEAN_MOTION_DDOT": "0.0000000000000", "SEMIMAJOR_AXIS": "6898.373", "PERIOD": "95.034", "APOAPSIS": "531.046", "PERIAPSIS": "509.430", "OBJECT_TYPE": "PAYLOAD", "RCS_SIZE": "SMALL", "COUNTRY_CODE": "ESA", "LAUNCH_DATE": "2019-12-18", "SITE": "FRGUI", "DECAY_DATE": null, "FILE": "2696928", "GP_ID": "148268713", "TLE_LINE0": "0 OPS-SAT", "TLE_LINE1": "1 44878U 19092F   20038.82291664 -.00000066 +00000-0 +00000-0 0  9996", "TLE_LINE2": "2 44878 097.4617 224.3455 0015668 088.3892 271.9141 15.15244485007759"}, {"CCSDS_OMM_VERS": "3.0", "COMMENT": "GENERATED VIA SPACE-TRACK.ORG API", "CREATION_DATE": "2020-02-08T06:20:14", "ORIGINATOR": "18 SPCS", "OBJECT_NAME": "OPS-SAT", "OBJECT_ID": "2019-092F", "CENTER_NAME": "EARTH", "REF_FRAME": "TEME", "TIME_SYSTEM": "UTC", "MEAN_ELEMENT_THEORY": "SGP4", "EPOCH": "2020-02-08T02:05:22.687296", "MEAN_MOTION": "15.15244533", "ECCENTRICITY": "0.00156710", "INCLINATION": "97.4621", "RA_OF_ASC_NODE": "224.6052", "ARG_OF_PERICENTER": "87.6368", "MEAN_ANOMALY": "272.6665", "EPHEMERIS_TYPE": "0", "CLASSIFICATION_TYPE": "U", "NORAD_CAT_ID": "44878", "ELEMENT_SET_NO": "999", "REV_AT_EPOCH": "779", "BSTAR": "0.00000000000000", "MEAN_MOTION_DOT": "-0.00000066", "MEAN_MOTION_DDOT": "0.0000000000000", "SEMIMAJOR_AXIS": "6898.373", "PERIOD": "95.034", "APOAPSIS": "531.048", "PERIAPSIS": "509.427", "OBJECT_TYPE": "PAYLOAD", "RCS_SIZE": "SMALL", "COUNTRY_CODE": "ESA", "LAUNCH_DATE": "2019-12-18", "SITE": "FRGUI", "DECAY_DATE": null, "FILE": "2696950", "GP_ID": "148288771", "TLE_LINE0": "0 OPS-SAT", "TLE_LINE1": "1 44878U 19092F   20039.08706814 -.00000066  00000-0  00000+0 0  9992", "TLE_LINE2": "2 44878  97.4621 224.6052 0015671  87.6368 272.6665 15.15244533  7791"}, {"CCSDS_OMM_VERS": "3.0", "COMMENT": "GENERATED VIA SPACE-TRACK.ORG API", "CREATION_DATE": "2020-02-08T21:39:57", "ORIGINATOR": "18 SPCS", "OBJECT_NAME": "OPS-SAT", "OBJECT_ID": "2019-092F", "CENTER_NAME": "EARTH", "REF_FRAME": "TEME", "TIME_SYSTEM": "UTC", "MEAN_ELEMENT_THEORY": "SGP4", "EPOCH": "2020-02-08T11:35:56.724288", "MEAN_MOTION": "15.15245661", "ECCENTRICITY": "0.00156940", "INCLINATION": "97.4617", "RA_OF_ASC_NODE": "224.9950", "ARG_OF_PERICENTER": "87.0564", "MEAN_ANOMALY": "273.2585", "EPHEMERIS_TYPE": "0", "CLASSIFICATION_TYPE": "U", "NORAD_CAT_ID": "44878", "ELEMENT_SET_NO": "999", "REV_AT_EPOCH": "785", "BSTAR": "0.00000000000000", "MEAN_MOTION_DOT": "-0.00000066", "MEAN_MOTION_DDOT": "0.0000000000000", "SEMIMAJOR_AXIS": "6898.369", "PERIOD": "95.034", "APOAPSIS": "531.061", "PERIAPSIS": "509.408", "OBJECT_TYPE": "PAYLOAD", "RCS_SIZE": "SMALL", "COUNTRY_CODE": "ESA", "LAUNCH_DATE": "2019-12-18", "SITE": "FRGUI", "DECAY_DATE": null, "FILE": "2697249", "GP_ID": "148314870", "TLE_LINE0": "0 OPS-SAT", "TLE_LINE1": "1 44878U 19092F   20039.48329542 -.00000066 +00000-0 +00000-0 0  9996", "TLE_LINE2": "2 44878 097.4617 224.9950 0015694 087.0564 273.2585 15.15245661007851"}]